[{"OBJECT_NAME":"STARLINK-32879","OBJECT_ID":"2025-029K","EPOCH":"2025-11-16T14:56:18.317472","MEAN_MOTION":15.30184628,"ECCENTRICITY":0.0001381,"INCLINATION":53.1607,"RA_OF_ASC_NODE":37.8474,"ARG_OF_PERICENTER":82.7366,"MEAN_ANOMALY":277.3792,"EPHEMERIS_TYPE":0,"CLASSIFICATION_TYPE":"U","NORAD_CAT_ID":62957,"ELEMENT_SET_NO":999,"REV_AT_EPOCH":4400,"BSTAR":0.0015746751,"MEAN_MOTION_DOT":0.00046548,"MEAN_MOTION_DDOT":0},{"OBJECT_NAME":"STARLINK-32885","OBJECT_ID":"2025-029L","EPOCH":"2025-11-16T14:09:57.270816","MEAN_MOTION":15.30183589,"ECCENTRICITY":0.00014834,"INCLINATION":53.161,"RA_OF_ASC_NODE":35.5146,"ARG_OF_PERICENTER":92.1798,"MEAN_ANOMALY":267.9372,"EPHEMERIS_TYPE":0,"CLASSIFICATION_TYPE":"U","NORAD_CAT_ID":62958,"ELEMENT_SET_NO":999,"REV_AT_EPOCH":4403,"BSTAR":0.0012425497,"MEAN_MOTION_DOT":0.00036604,"MEAN_MOTION_DDOT":0},{"OBJECT_NAME":"STARLINK-32896","OBJECT_ID":"2025-029M","EPOCH":"2025-11-16T15:14:32.351424","MEAN_MOTION":15.30190516,"ECCENTRICITY":0.00013873,"INCLINATION":53.1595,"RA_OF_ASC_NODE":37.924,"ARG_OF_PERICENTER":93.5971,"MEAN_ANOMALY":266.5188,"EPHEMERIS_TYPE":0,"CLASSIFICATION_TYPE":"U","NORAD_CAT_ID":62959,"ELEMENT_SET_NO":999,"REV_AT_EPOCH":4400,"BSTAR":0.0013054696,"MEAN_MOTION_DOT":0.00038494,"MEAN_MOTION_DDOT":0},{"OBJECT_NAME":"STARLINK-32877","OBJECT_ID":"2025-029N","EPOCH":"2025-11-16T15:05:24.184032","MEAN_MOTION":15.30205974,"ECCENTRICITY":0.00013712,"INCLINATION":53.1602,"RA_OF_ASC_NODE":37.8846,"ARG_OF_PERICENTER":67.9472,"MEAN_ANOMALY":292.1674,"EPHEMERIS_TYPE":0,"CLASSIFICATION_TYPE":"U","NORAD_CAT_ID":62960,"ELEMENT_SET_NO":999,"REV_AT_EPOCH":4398,"BSTAR":0.0016618246,"MEAN_MOTION_DOT":0.00049195,"MEAN_MOTION_DDOT":0},{"OBJECT_NAME":"STARLINK-32889","OBJECT_ID":"2025-029P","EPOCH":"2025-11-16T15:09:58.062528","MEAN_MOTION":15.30205442,"ECCENTRICITY":6.688e-5,"INCLINATION":53.1584,"RA_OF_ASC_NODE":37.9068,"ARG_OF_PERICENTER":84.8485,"MEAN_ANOMALY":275.2592,"EPHEMERIS_TYPE":0,"CLASSIFICATION_TYPE":"U","NORAD_CAT_ID":62961,"ELEMENT_SET_NO":999,"REV_AT_EPOCH":4400,"BSTAR":0.0014955522,"MEAN_MOTION_DOT":0.00044206,"MEAN_MOTION_DDOT":0},{"OBJECT_NAME":"STARLINK-32858","OBJECT_ID":"2025-029Q","EPOCH":"2025-11-16T12:10:49.212192","MEAN_MOTION":15.3024916,"ECCENTRICITY":9.31e-5,"INCLINATION":53.1593,"RA_OF_ASC_NODE":37.8399,"ARG_OF_PERICENTER":71.533,"MEAN_ANOMALY":288.5772,"EPHEMERIS_TYPE":0,"CLASSIFICATION_TYPE":"U","NORAD_CAT_ID":62962,"ELEMENT_SET_NO":999,"REV_AT_EPOCH":4397,"BSTAR":0.0014323818,"MEAN_MOTION_DOT":0.00042371,"MEAN_MOTION_DDOT":0},{"OBJECT_NAME":"STARLINK-32882","OBJECT_ID":"2025-029R","EPOCH":"2025-11-16T14:12:59.233536","MEAN_MOTION":15.30206083,"ECCENTRICITY":0.00010164,"INCLINATION":53.1609,"RA_OF_ASC_NODE":35.5277,"ARG_OF_PERICENTER":87.6277,"MEAN_ANOMALY":272.484,"EPHEMERIS_TYPE":0,"CLASSIFICATION_TYPE":"U","NORAD_CAT_ID":62963,"ELEMENT_SET_NO":999,"REV_AT_EPOCH":4403,"BSTAR":0.00055293356,"MEAN_MOTION_DOT":0.00016056,"MEAN_MOTION_DDOT":0},{"OBJECT_NAME":"STARLINK-32887","OBJECT_ID":"2025-029S","EPOCH":"2025-11-16T15:39:27.061056","MEAN_MOTION":15.30197521,"ECCENTRICITY":0.0001475,"INCLINATION":53.1608,"RA_OF_ASC_NODE":35.1933,"ARG_OF_PERICENTER":76.2262,"MEAN_ANOMALY":283.8903,"EPHEMERIS_TYPE":0,"CLASSIFICATION_TYPE":"U","NORAD_CAT_ID":62964,"ELEMENT_SET_NO":999,"REV_AT_EPOCH":4404,"BSTAR":0.0018963,"MEAN_MOTION_DOT":0.00056227,"MEAN_MOTION_DDOT":0},{"OBJECT_NAME":"STARLINK-32836","OBJECT_ID":"2025-029T","EPOCH":"2025-11-16T15:33:22.070304","MEAN_MOTION":15.30196214,"ECCENTRICITY":0.0001199,"INCLINATION":53.1604,"RA_OF_ASC_NODE":35.1652,"ARG_OF_PERICENTER":91.6412,"MEAN_ANOMALY":268.4726,"EPHEMERIS_TYPE":0,"CLASSIFICATION_TYPE":"U","NORAD_CAT_ID":62965,"ELEMENT_SET_NO":999,"REV_AT_EPOCH":4404,"BSTAR":0.0014247,"MEAN_MOTION_DOT":0.0004207,"MEAN_MOTION_DDOT":0},{"OBJECT_NAME":"STARLINK-32888","OBJECT_ID":"2025-029U","EPOCH":"2025-11-16T15:00:51.903936","MEAN_MOTION":15.30191681,"ECCENTRICITY":0.00011638,"INCLINATION":53.1599,"RA_OF_ASC_NODE":37.8748,"ARG_OF_PERICENTER":79.9193,"MEAN_ANOMALY":280.1939,"EPHEMERIS_TYPE":0,"CLASSIFICATION_TYPE":"U","NORAD_CAT_ID":62966,"ELEMENT_SET_NO":999,"REV_AT_EPOCH":4400,"BSTAR":0.0014801302,"MEAN_MOTION_DOT":0.00043725,"MEAN_MOTION_DDOT":0},{"OBJECT_NAME":"STARLINK-32897","OBJECT_ID":"2025-029V","EPOCH":"2025-11-16T15:47:48.398784","MEAN_MOTION":15.30210459,"ECCENTRICITY":0.0001278,"INCLINATION":53.1609,"RA_OF_ASC_NODE":37.3538,"ARG_OF_PERICENTER":100.419,"MEAN_ANOMALY":259.6954,"EPHEMERIS_TYPE":0,"CLASSIFICATION_TYPE":"U","NORAD_CAT_ID":62967,"ELEMENT_SET_NO":999,"REV_AT_EPOCH":4401,"BSTAR":0.0020732,"MEAN_MOTION_DOT":0.00061572,"MEAN_MOTION_DDOT":0},{"OBJECT_NAME":"STARLINK-32863","OBJECT_ID":"2025-029W","EPOCH":"2025-11-16T14:47:11.097888","MEAN_MOTION":15.30192251,"ECCENTRICITY":0.00012814,"INCLINATION":53.1607,"RA_OF_ASC_NODE":37.8022,"ARG_OF_PERICENTER":82.7405,"MEAN_ANOMALY":277.3742,"EPHEMERIS_TYPE":0,"CLASSIFICATION_TYPE":"U","NORAD_CAT_ID":62968,"ELEMENT_SET_NO":999,"REV_AT_EPOCH":4314,"BSTAR":0.0018100831,"MEAN_MOTION_DOT":0.00053625,"MEAN_MOTION_DDOT":0},{"OBJECT_NAME":"STARLINK-32894","OBJECT_ID":"2025-029X","EPOCH":"2025-11-16T15:38:39.141024","MEAN_MOTION":15.30255739,"ECCENTRICITY":8.21e-5,"INCLINATION":53.1592,"RA_OF_ASC_NODE":37.3145,"ARG_OF_PERICENTER":90.1193,"MEAN_ANOMALY":269.9902,"EPHEMERIS_TYPE":0,"CLASSIFICATION_TYPE":"U","NORAD_CAT_ID":62969,"ELEMENT_SET_NO":999,"REV_AT_EPOCH":4401,"BSTAR":0.0019476,"MEAN_MOTION_DOT":0.00057873,"MEAN_MOTION_DDOT":0},{"OBJECT_NAME":"STARLINK-32826","OBJECT_ID":"2025-029Y","EPOCH":"2025-11-16T12:21:28.034784","MEAN_MOTION":15.30190433,"ECCENTRICITY":0.00011435,"INCLINATION":53.1597,"RA_OF_ASC_NODE":37.8818,"ARG_OF_PERICENTER":67.5432,"MEAN_ANOMALY":292.569,"EPHEMERIS_TYPE":0,"CLASSIFICATION_TYPE":"U","NORAD_CAT_ID":62970,"ELEMENT_SET_NO":999,"REV_AT_EPOCH":4399,"BSTAR":0.0022170065,"MEAN_MOTION_DOT":0.00065866,"MEAN_MOTION_DDOT":0},{"OBJECT_NAME":"STARLINK-11543 [DTC]","OBJECT_ID":"2025-031A","EPOCH":"2025-11-16T04:15:11.439936","MEAN_MOTION":15.70880017,"ECCENTRICITY":0.00012563,"INCLINATION":42.9972,"RA_OF_ASC_NODE":325.3374,"ARG_OF_PERICENTER":168.6282,"MEAN_ANOMALY":191.4614,"EPHEMERIS_TYPE":0,"CLASSIFICATION_TYPE":"U","NORAD_CAT_ID":62981,"ELEMENT_SET_NO":999,"REV_AT_EPOCH":4489,"BSTAR":0.0024341659,"MEAN_MOTION_DOT":0.00324963,"MEAN_MOTION_DDOT":0},{"OBJECT_NAME":"STARLINK-11458 [DTC]","OBJECT_ID":"2025-031B","EPOCH":"2025-11-16T07:41:14.990496","MEAN_MOTION":15.70978146,"ECCENTRICITY":0.00011734,"INCLINATION":42.9985,"RA_OF_ASC_NODE":324.6983,"ARG_OF_PERICENTER":211.3615,"MEAN_ANOMALY":148.7183,"EPHEMERIS_TYPE":0,"CLASSIFICATION_TYPE":"U","NORAD_CAT_ID":62982,"ELEMENT_SET_NO":999,"REV_AT_EPOCH":4491,"BSTAR":0.0028921879,"MEAN_MOTION_DOT":0.00390927,"MEAN_MOTION_DDOT":0},{"OBJECT_NAME":"STARLINK-11417 [DTC]","OBJECT_ID":"2025-031C","EPOCH":"2025-11-16T07:03:12.204864","MEAN_MOTION":15.71020392,"ECCENTRICITY":0.00014657,"INCLINATION":42.9949,"RA_OF_ASC_NODE":325.3803,"ARG_OF_PERICENTER":227.5353,"MEAN_ANOMALY":132.5391,"EPHEMERIS_TYPE":0,"CLASSIFICATION_TYPE":"U","NORAD_CAT_ID":62983,"ELEMENT_SET_NO":999,"REV_AT_EPOCH":4490,"BSTAR":0.0027119386,"MEAN_MOTION_DOT":0.00366067,"MEAN_MOTION_DDOT":0},{"OBJECT_NAME":"STARLINK-11544 [DTC]","OBJECT_ID":"2025-031D","EPOCH":"2025-11-16T07:33:35.906688","MEAN_MOTION":15.70915221,"ECCENTRICITY":9.444e-5,"INCLINATION":43.0003,"RA_OF_ASC_NODE":324.6562,"ARG_OF_PERICENTER":256.4182,"MEAN_ANOMALY":103.658,"EPHEMERIS_TYPE":0,"CLASSIFICATION_TYPE":"U","NORAD_CAT_ID":62984,"ELEMENT_SET_NO":999,"REV_AT_EPOCH":4488,"BSTAR":0.0016422588,"MEAN_MOTION_DOT":0.0021654,"MEAN_MOTION_DDOT":0},{"OBJECT_NAME":"STARLINK-11582 [DTC]","OBJECT_ID":"2025-031E","EPOCH":"2025-11-16T06:24:58.639968","MEAN_MOTION":15.70895044,"ECCENTRICITY":0.00017108,"INCLINATION":43.0009,"RA_OF_ASC_NODE":325.1672,"ARG_OF_PERICENTER":270.2695,"MEAN_ANOMALY":89.7976,"EPHEMERIS_TYPE":0,"CLASSIFICATION_TYPE":"U","NORAD_CAT_ID":62985,"ELEMENT_SET_NO":999,"REV_AT_EPOCH":4490,"BSTAR":0.0014300625,"MEAN_MOTION_DOT":0.00187684,"MEAN_MOTION_DDOT":0},{"OBJECT_NAME":"STARLINK-11571 [DTC]","OBJECT_ID":"2025-031F","EPOCH":"2025-11-16T07:10:39.692928","MEAN_MOTION":15.70948217,"ECCENTRICITY":0.00011201,"INCLINATION":42.999,"RA_OF_ASC_NODE":324.5256,"ARG_OF_PERICENTER":246.0616,"MEAN_ANOMALY":114.0134,"EPHEMERIS_TYPE":0,"CLASSIFICATION_TYPE":"U","NORAD_CAT_ID":62986,"ELEMENT_SET_NO":999,"REV_AT_EPOCH":4491,"BSTAR":0.0025697859,"MEAN_MOTION_DOT":0.00344918,"MEAN_MOTION_DDOT":0},{"OBJECT_NAME":"STARLINK-11539 [DTC]","OBJECT_ID":"2025-031G","EPOCH":"2025-11-15T07:23:55.957920","MEAN_MOTION":15.70958241,"ECCENTRICITY":0.0001871,"INCLINATION":42.9993,"RA_OF_ASC_NODE":330.8702,"ARG_OF_PERICENTER":283.6744,"MEAN_ANOMALY":76.3915,"EPHEMERIS_TYPE":0,"CLASSIFICATION_TYPE":"U","NORAD_CAT_ID":62987,"ELEMENT_SET_NO":999,"REV_AT_EPOCH":4475,"BSTAR":0.0015854093,"MEAN_MOTION_DOT":0.00209222,"MEAN_MOTION_DDOT":0},{"OBJECT_NAME":"STARLINK-11542 [DTC]","OBJECT_ID":"2025-031H","EPOCH":"2025-11-16T07:25:57.161568","MEAN_MOTION":15.70929162,"ECCENTRICITY":0.00011117,"INCLINATION":42.9992,"RA_OF_ASC_NODE":324.6104,"ARG_OF_PERICENTER":251.1745,"MEAN_ANOMALY":108.9002,"EPHEMERIS_TYPE":0,"CLASSIFICATION_TYPE":"U","NORAD_CAT_ID":62988,"ELEMENT_SET_NO":999,"REV_AT_EPOCH":4488,"BSTAR":0.001756783,"MEAN_MOTION_DOT":0.00232251,"MEAN_MOTION_DDOT":0},{"OBJECT_NAME":"STARLINK-11573 [DTC]","OBJECT_ID":"2025-031J","EPOCH":"2025-11-16T06:40:16.162176","MEAN_MOTION":15.7089846,"ECCENTRICITY":0.00018363,"INCLINATION":42.9996,"RA_OF_ASC_NODE":325.2508,"ARG_OF_PERICENTER":272.0142,"MEAN_ANOMALY":88.0515,"EPHEMERIS_TYPE":0,"CLASSIFICATION_TYPE":"U","NORAD_CAT_ID":62989,"ELEMENT_SET_NO":999,"REV_AT_EPOCH":4487,"BSTAR":0.0015224668,"MEAN_MOTION_DOT":0.00200174,"MEAN_MOTION_DDOT":0}]
